[Satellite]
VERSION=1.1
NAME=LAPAN-TUBSAT
NICKNAME=LAPAN-TUBSAT
TLE1=1 29709U 07001A   17186.15264688  .00000011  00000-0  77324-5 0  9998
TLE2=2 29709  97.7049 160.2957 0013911  38.2158 322.0039 14.82061690566640
